{"type": "FeatureCollection", "features": [ {"type": "Feature", "properties": {"norad_id": 43437, "name": "SENTINEL-3B", "group": "resource", "lat": 33.386957148998945, "lon": 58.745173132180746, "alt_km": 799.8709048686287, "timestamp": "2025-12-25T11:37:44.079332+00:00", "meta": {"OBJECT_NAME": "SENTINEL-3B", "OBJECT_ID": "2018-039A", "EPOCH": "2025-12-25T03:03:19.264320", "MEAN_MOTION": 14.26738745, "ECCENTRICITY": 0.0001592, "INCLINATION": 98.625, "RA_OF_ASC_NODE": 64.1341, "ARG_OF_PERICENTER": 89.4651, "MEAN_ANOMALY": 270.6712, "EPHEMERIS_TYPE": 0, "CLASSIFICATION_TYPE": "U", "NORAD_CAT_ID": 43437, "ELEMENT_SET_NO": 999, "REV_AT_EPOCH": 39930, "BSTAR": 7.805e-05, "MEAN_MOTION_DOT": 1.45e-06, "MEAN_MOTION_DDOT": 0}, "tle": {"line1": "1 43437U 18039A   25359.12730630  .00000145  00000+0  78050-4 0  9991", "line2": "2 43437  98.6250  64.1341 0001592  89.4651 270.6712 14.26738745399308"}}, "geometry": {"type": "Point", "coordinates": [58.745173132180746, 33.386957148998945]}}, {"type": "Feature", "properties": {"norad_id": 43461, "name": "GAOFEN-5 01", "group": "resource", "lat": 53.078922962797364, "lon": 154.06469676157752, "alt_km": 686.9876366999806, "timestamp": "2025-12-25T11:37:44.079342+00:00", "meta": {"OBJECT_NAME": "GAOFEN-5 01", "OBJECT_ID": "2018-043A", "EPOCH": "2025-12-24T20:15:17.532288", "MEAN_MOTION": 14.60422427, "ECCENTRICITY": 5.289e-05, "INCLINATION": 98.4345, "RA_OF_ASC_NODE": 322.0236, "ARG_OF_PERICENTER": 244.9883, "MEAN_ANOMALY": 115.1262, "EPHEMERIS_TYPE": 0, "CLASSIFICATION_TYPE": "U", "NORAD_CAT_ID": 43461, "ELEMENT_SET_NO": 999, "REV_AT_EPOCH": 40624, "BSTAR": 0.00010643871, "MEAN_MOTION_DOT": 4.67e-06, "MEAN_MOTION_DDOT": 0}, "tle": {"line1": "1 43461U 18043A   25358.84395292  .00000467  00000+0  10644-3 0  9993", "line2": "2 43461  98.4345 322.0236 0000528 244.9883 115.1262 14.60422427406240"}}, "geometry": {"type": "Point", "coordinates": [154.06469676157752, 53.078922962797364]}}, {"type": "Feature", "properties": {"norad_id": 43484, "name": "GAOFEN-6", "group": "resource", "lat": 38.12025383391392, "lon": -110.50188682045719, "alt_km": 641.1415538329293, "timestamp": "2025-12-25T11:37:44.079352+00:00", "meta": {"OBJECT_NAME": "GAOFEN-6", "OBJECT_ID": "2018-048A", "EPOCH": "2025-12-25T04:29:10.433184", "MEAN_MOTION": 14.76586543, "ECCENTRICITY": 0.0012542, "INCLINATION": 97.8012, "RA_OF_ASC_NODE": 63.035, "ARG_OF_PERICENTER": 26.5885, "MEAN_ANOMALY": 333.5966, "EPHEMERIS_TYPE": 0, "CLASSIFICATION_TYPE": "U", "NORAD_CAT_ID": 43484, "ELEMENT_SET_NO": 999, "REV_AT_EPOCH": 40771, "BSTAR": 7.3573e-05, "MEAN_MOTION_DOT": 4.65e-06, "MEAN_MOTION_DDOT": 0}, "tle": {"line1": "1 43484U 18048A   25359.18692631  .00000465  00000+0  73573-4 0  9997", "line2": "2 43484  97.8012  63.0350 0012542  26.5885 333.5966 14.76586543407710"}}, "geometry": {"type": "Point", "coordinates": [-110.50188682045719, 38.12025383391392]}}, {"type": "Feature", "properties": {"norad_id": 43585, "name": "GAOFEN-11 01", "group": "resource", "lat": 42.68266034970576, "lon": 55.66266365121871, "alt_km": 416.95902552019015, "timestamp": "2025-12-25T11:37:44.079362+00:00", "meta": {"OBJECT_NAME": "GAOFEN-11 01", "OBJECT_ID": "2018-063A", "EPOCH": "2025-12-25T05:14:38.775840", "MEAN_MOTION": 15.4957008, "ECCENTRICITY": 0.0003897, "INCLINATION": 97.1536, "RA_OF_ASC_NODE": 62.0501, "ARG_OF_PERICENTER": 247.8402, "MEAN_ANOMALY": 112.2436, "EPHEMERIS_TYPE": 0, "CLASSIFICATION_TYPE": "U", "NORAD_CAT_ID": 43585, "ELEMENT_SET_NO": 999, "REV_AT_EPOCH": 41335, "BSTAR": 0.00035423, "MEAN_MOTION_DOT": 0.00019488, "MEAN_MOTION_DDOT": 0}, "tle": {"line1": "1 43585U 18063A   25359.21850435  .00019488  00000+0  35423-3 0  9994", "line2": "2 43585  97.1536  62.0501 0003897 247.8402 112.2436 15.49570080413350"}}, "geometry": {"type": "Point", "coordinates": [55.66266365121871, 42.68266034970576]}}, {"type": "Feature", "properties": {"norad_id": 43613, "name": "ICESAT-2", "group": "resource", "lat": -67.99119576337995, "lon": 59.20834413315758, "alt_km": 490.06217950746213, "timestamp": "2025-12-25T11:37:44.079376+00:00", "meta": {"OBJECT_NAME": "ICESAT-2", "OBJECT_ID": "2018-070A", "EPOCH": "2025-12-25T02:41:21.497568", "MEAN_MOTION": 15.28231954, "ECCENTRICITY": 0.0003065, "INCLINATION": 92.0035, "RA_OF_ASC_NODE": 244.0763, "ARG_OF_PERICENTER": 109.5294, "MEAN_ANOMALY": 250.6286, "EPHEMERIS_TYPE": 0, "CLASSIFICATION_TYPE": "U", "NORAD_CAT_ID": 43613, "ELEMENT_SET_NO": 999, "REV_AT_EPOCH": 40587, "BSTAR": 0.00047879, "MEAN_MOTION_DOT": 0.00013173, "MEAN_MOTION_DDOT": 0}, "tle": {"line1": "1 43613U 18070A   25359.11205437  .00013173  00000+0  47879-3 0  9992", "line2": "2 43613  92.0035 244.0763 0003065 109.5294 250.6286 15.28231954405871"}}, "geometry": {"type": "Point", "coordinates": [59.20834413315758, -67.99119576337995]}}, {"type": "Feature", "properties": {"norad_id": 43719, "name": "HYSIS", "group": "resource", "lat": -81.6660390722313, "lon": 136.34410072509544, "alt_km": 641.3116153211804, "timestamp": "2025-12-25T11:37:44.079386+00:00", "meta": {"OBJECT_NAME": "HYSIS", "OBJECT_ID": "2018-096A", "EPOCH": "2025-12-25T03:54:17.349120", "MEAN_MOTION": 14.78678969, "ECCENTRICITY": 8.19e-05, "INCLINATION": 98.0079, "RA_OF_ASC_NODE": 62.0789, "ARG_OF_PERICENTER": 57.4093, "MEAN_ANOMALY": 302.7196, "EPHEMERIS_TYPE": 0, "CLASSIFICATION_TYPE": "U", "NORAD_CAT_ID": 43719, "ELEMENT_SET_NO": 999, "REV_AT_EPOCH": 38170, "BSTAR": 0.00021784, "MEAN_MOTION_DOT": 1.545e-05, "MEAN_MOTION_DDOT": 0}, "tle": {"line1": "1 43719U 18096A   25359.16270080  .00001545  00000+0  21784-3 0  9995", "line2": "2 43719  98.0079  62.0789 0000819  57.4093 302.7196 14.78678969381709"}}, "geometry": {"type": "Point", "coordinates": [136.34410072509544, -81.6660390722313]}}, {"type": "Feature", "properties": {"norad_id": 43783, "name": "KAZSTSAT", "group": "resource", "lat": 16.15202919703846, "lon": 31.94731797199134, "alt_km": 570.5299777526161, "timestamp": "2025-12-25T11:37:44.079396+00:00", "meta": {"OBJECT_NAME": "KAZSTSAT", "OBJECT_ID": "2018-099AB", "EPOCH": "2025-12-25T01:56:47.065056", "MEAN_MOTION": 14.99371736, "ECCENTRICITY": 0.0006299, "INCLINATION": 97.4514, "RA_OF_ASC_NODE": 33.7337, "ARG_OF_PERICENTER": 275.0588, "MEAN_ANOMALY": 84.9917, "EPHEMERIS_TYPE": 0, "CLASSIFICATION_TYPE": "U", "NORAD_CAT_ID": 43783, "ELEMENT_SET_NO": 999, "REV_AT_EPOCH": 38521, "BSTAR": 5.785e-05, "MEAN_MOTION_DOT": 6.52e-06, "MEAN_MOTION_DDOT": 0}, "tle": {"line1": "1 43783U 18099AB  25359.08110029  .00000652  00000+0  57850-4 0  9998", "line2": "2 43783  97.4514  33.7337 0006299 275.0588  84.9917 14.99371736385211"}}, "geometry": {"type": "Point", "coordinates": [31.94731797199134, 16.15202919703846]}}, {"type": "Feature", "properties": {"norad_id": 43831, "name": "SAUDISAT 5A", "group": "resource", "lat": -17.011795021345282, "lon": -122.82875986785339, "alt_km": 500.5224400976458, "timestamp": "2025-12-25T11:37:44.079406+00:00", "meta": {"OBJECT_NAME": "SAUDISAT 5A", "OBJECT_ID": "2018-102A", "EPOCH": "2025-12-25T04:28:21.821088", "MEAN_MOTION": 15.25807061, "ECCENTRICITY": 0.0011049, "INCLINATION": 97.333, "RA_OF_ASC_NODE": 59.1369, "ARG_OF_PERICENTER": 37.4884, "MEAN_ANOMALY": 322.7123, "EPHEMERIS_TYPE": 0, "CLASSIFICATION_TYPE": "U", "NORAD_CAT_ID": 43831, "ELEMENT_SET_NO": 999, "REV_AT_EPOCH": 38912, "BSTAR": 0.00028089, "MEAN_MOTION_DOT": 7.122e-05, "MEAN_MOTION_DDOT": 0}, "tle": {"line1": "1 43831U 18102A   25359.18636367  .00007122  00000+0  28089-3 0  9996", "line2": "2 43831  97.3330  59.1369 0011049  37.4884 322.7123 15.25807061389126"}}, "geometry": {"type": "Point", "coordinates": [-122.82875986785339, -17.011795021345282]}}, {"type": "Feature", "properties": {"norad_id": 43833, "name": "SAUDISAT 5B", "group": "resource", "lat": -81.20937236711448, "lon": -174.30563640151206, "alt_km": 500.22793256982186, "timestamp": "2025-12-25T11:37:44.079416+00:00", "meta": {"OBJECT_NAME": "SAUDISAT 5B", "OBJECT_ID": "2018-102C", "EPOCH": "2025-12-25T04:10:33.739104", "MEAN_MOTION": 15.26153065, "ECCENTRICITY": 0.0011791, "INCLINATION": 97.3425, "RA_OF_ASC_NODE": 61.8857, "ARG_OF_PERICENTER": 39.5208, "MEAN_ANOMALY": 320.6888, "EPHEMERIS_TYPE": 0, "CLASSIFICATION_TYPE": "U", "NORAD_CAT_ID": 43833, "ELEMENT_SET_NO": 999, "REV_AT_EPOCH": 38923, "BSTAR": 0.00025232, "MEAN_MOTION_DOT": 6.458e-05, "MEAN_MOTION_DDOT": 0}, "tle": {"line1": "1 43833U 18102C   25359.17400161  .00006458  00000+0  25232-3 0  9996", "line2": "2 43833  97.3425  61.8857 0011791  39.5208 320.6888 15.26153065389238"}}, "geometry": {"type": "Point", "coordinates": [-174.30563640151206, -81.20937236711448]}}, {"type": "Feature", "properties": {"norad_id": 44622, "name": "GAOFEN-10R", "group": "resource", "lat": 26.534731044791634, "lon": -57.00030949420657, "alt_km": 614.9264934927423, "timestamp": "2025-12-25T11:37:44.079426+00:00", "meta": {"OBJECT_NAME": "GAOFEN-10R", "OBJECT_ID": "2019-066A", "EPOCH": "2025-12-25T05:01:49.739808", "MEAN_MOTION": 14.82833202, "ECCENTRICITY": 0.0006994, "INCLINATION": 98.0295, "RA_OF_ASC_NODE": 306.7656, "ARG_OF_PERICENTER": 5.1533, "MEAN_ANOMALY": 354.9751, "EPHEMERIS_TYPE": 0, "CLASSIFICATION_TYPE": "U", "NORAD_CAT_ID": 44622, "ELEMENT_SET_NO": 999, "REV_AT_EPOCH": 33659, "BSTAR": 0.00021147, "MEAN_MOTION_DOT": 1.658e-05, "MEAN_MOTION_DDOT": 0}, "tle": {"line1": "1 44622U 19066A   25359.20960347  .00001658  00000+0  21147-3 0  9992", "line2": "2 44622  98.0295 306.7656 0006994   5.1533 354.9751 14.82833202336594"}}, "geometry": {"type": "Point", "coordinates": [-57.00030949420657, 26.534731044791634]}}]}